STARLINK-1806
1 17549C 21009B   21326.12517436  .00010297  00000-0  69000-3 0  3265
2 17549  53.0539 213.1776 0002189  67.2779  41.7952 15.06382129    17
